<?xml version="1.0" encoding="UTF-8"?>
<kml xmlns="http://www.opengis.net/kml/2.2">
  <Document>
    <name>CityPortraits_Map-Network_Dummy_20260420</name>
    <description/>
    <Style id="icon-1899-0288D1-nodesc-normal">
      <IconStyle>
        <color>ffd18802</color>
        <scale>1</scale>
        <Icon>
          <href>https://www.gstatic.com/mapspro/images/stock/503-wht-blank_maps.png</href>
        </Icon>
        <hotSpot x="32" xunits="pixels" y="64" yunits="insetPixels"/>
      </IconStyle>
      <LabelStyle>
        <scale>0</scale>
      </LabelStyle>
      <BalloonStyle>
        <text><![CDATA[<h3>$[name]</h3>]]></text>
      </BalloonStyle>
    </Style>
    <Style id="icon-1899-0288D1-nodesc-highlight">
      <IconStyle>
        <color>ffd18802</color>
        <scale>1</scale>
        <Icon>
          <href>https://www.gstatic.com/mapspro/images/stock/503-wht-blank_maps.png</href>
        </Icon>
        <hotSpot x="32" xunits="pixels" y="64" yunits="insetPixels"/>
      </IconStyle>
      <LabelStyle>
        <scale>1</scale>
      </LabelStyle>
      <BalloonStyle>
        <text><![CDATA[<h3>$[name]</h3>]]></text>
      </BalloonStyle>
    </Style>
    <StyleMap id="icon-1899-0288D1-nodesc">
      <Pair>
        <key>normal</key>
        <styleUrl>#icon-1899-0288D1-nodesc-normal</styleUrl>
      </Pair>
      <Pair>
        <key>highlight</key>
        <styleUrl>#icon-1899-0288D1-nodesc-highlight</styleUrl>
      </Pair>
    </StyleMap>
    <Style id="icon-1899-7CB342-labelson-nodesc">
      <IconStyle>
        <color>ff42b37c</color>
        <scale>1</scale>
        <Icon>
          <href>https://www.gstatic.com/mapspro/images/stock/503-wht-blank_maps.png</href>
        </Icon>
        <hotSpot x="32" xunits="pixels" y="64" yunits="insetPixels"/>
      </IconStyle>
      <BalloonStyle>
        <text><![CDATA[<h3>$[name]</h3>]]></text>
      </BalloonStyle>
    </Style>
    <Style id="icon-1899-C2185B-labelson-nodesc">
      <IconStyle>
        <color>ff5b18c2</color>
        <scale>1</scale>
        <Icon>
          <href>https://www.gstatic.com/mapspro/images/stock/503-wht-blank_maps.png</href>
        </Icon>
        <hotSpot x="32" xunits="pixels" y="64" yunits="insetPixels"/>
      </IconStyle>
      <BalloonStyle>
        <text><![CDATA[<h3>$[name]</h3>]]></text>
      </BalloonStyle>
    </Style>
    <Style id="icon-1899-DB4436-nodesc-normal">
      <IconStyle>
        <color>ff3644db</color>
        <scale>1</scale>
        <Icon>
          <href>https://www.gstatic.com/mapspro/images/stock/503-wht-blank_maps.png</href>
        </Icon>
        <hotSpot x="32" xunits="pixels" y="64" yunits="insetPixels"/>
      </IconStyle>
      <LabelStyle>
        <scale>0</scale>
      </LabelStyle>
      <BalloonStyle>
        <text><![CDATA[<h3>$[name]</h3>]]></text>
      </BalloonStyle>
    </Style>
    <Style id="icon-1899-DB4436-nodesc-highlight">
      <IconStyle>
        <color>ff3644db</color>
        <scale>1</scale>
        <Icon>
          <href>https://www.gstatic.com/mapspro/images/stock/503-wht-blank_maps.png</href>
        </Icon>
        <hotSpot x="32" xunits="pixels" y="64" yunits="insetPixels"/>
      </IconStyle>
      <LabelStyle>
        <scale>1</scale>
      </LabelStyle>
      <BalloonStyle>
        <text><![CDATA[<h3>$[name]</h3>]]></text>
      </BalloonStyle>
    </Style>
    <StyleMap id="icon-1899-DB4436-nodesc">
      <Pair>
        <key>normal</key>
        <styleUrl>#icon-1899-DB4436-nodesc-normal</styleUrl>
      </Pair>
      <Pair>
        <key>highlight</key>
        <styleUrl>#icon-1899-DB4436-nodesc-highlight</styleUrl>
      </Pair>
    </StyleMap>
    <Style id="icon-1899-FFEA00-labelson-nodesc">
      <IconStyle>
        <color>ff00eaff</color>
        <scale>1</scale>
        <Icon>
          <href>https://www.gstatic.com/mapspro/images/stock/503-wht-blank_maps.png</href>
        </Icon>
        <hotSpot x="32" xunits="pixels" y="64" yunits="insetPixels"/>
      </IconStyle>
      <BalloonStyle>
        <text><![CDATA[<h3>$[name]</h3>]]></text>
      </BalloonStyle>
    </Style>
    <Style id="line-1267FF-5000-nodesc-normal">
      <LineStyle>
        <color>ffff6712</color>
        <width>5</width>
      </LineStyle>
      <BalloonStyle>
        <text><![CDATA[<h3>$[name]</h3>]]></text>
      </BalloonStyle>
    </Style>
    <Style id="line-1267FF-5000-nodesc-highlight">
      <LineStyle>
        <color>ffff6712</color>
        <width>7.5</width>
      </LineStyle>
      <BalloonStyle>
        <text><![CDATA[<h3>$[name]</h3>]]></text>
      </BalloonStyle>
    </Style>
    <StyleMap id="line-1267FF-5000-nodesc">
      <Pair>
        <key>normal</key>
        <styleUrl>#line-1267FF-5000-nodesc-normal</styleUrl>
      </Pair>
      <Pair>
        <key>highlight</key>
        <styleUrl>#line-1267FF-5000-nodesc-highlight</styleUrl>
      </Pair>
    </StyleMap>
    <Style id="line-E65100-1200-nodesc-normal">
      <LineStyle>
        <color>ff0051e6</color>
        <width>1.2</width>
      </LineStyle>
      <BalloonStyle>
        <text><![CDATA[<h3>$[name]</h3>]]></text>
      </BalloonStyle>
    </Style>
    <Style id="line-E65100-1200-nodesc-highlight">
      <LineStyle>
        <color>ff0051e6</color>
        <width>1.8</width>
      </LineStyle>
      <BalloonStyle>
        <text><![CDATA[<h3>$[name]</h3>]]></text>
      </BalloonStyle>
    </Style>
    <StyleMap id="line-E65100-1200-nodesc">
      <Pair>
        <key>normal</key>
        <styleUrl>#line-E65100-1200-nodesc-normal</styleUrl>
      </Pair>
      <Pair>
        <key>highlight</key>
        <styleUrl>#line-E65100-1200-nodesc-highlight</styleUrl>
      </Pair>
    </StyleMap>
    <Folder>
      <name>Street Coordinates</name>
      <Placemark>
        <name>Rr. Kavajes A</name>
        <styleUrl>#icon-1899-0288D1-nodesc</styleUrl>
        <Point>
          <coordinates>
            19.784122,41.3198205,0
          </coordinates>
        </Point>
      </Placemark>
      <Placemark>
        <name>Rr. Kavajes B
</name>
        <styleUrl>#icon-1899-0288D1-nodesc</styleUrl>
        <Point>
          <coordinates>
            19.8031971,41.3256143,0
          </coordinates>
        </Point>
      </Placemark>
      <Placemark>
        <name>Rr. Kavajes C
</name>
        <styleUrl>#icon-1899-0288D1-nodesc</styleUrl>
        <Point>
          <coordinates>
            19.811919,41.3282813,0
          </coordinates>
        </Point>
      </Placemark>
      <Placemark>
        <name>Rr. Kavajes D
</name>
        <styleUrl>#icon-1899-0288D1-nodesc</styleUrl>
        <Point>
          <coordinates>
            19.8159227,41.3282195,0
          </coordinates>
        </Point>
      </Placemark>
    </Folder>
    <Folder>
      <name>Streets</name>
      <Placemark>
        <name>Rr. Dibres</name>
        <styleUrl>#line-E65100-1200-nodesc</styleUrl>
        <LineString>
          <tessellate>1</tessellate>
          <coordinates>
            19.8193402,41.3296087,0
            19.8205994,41.330577,0
            19.8219072,41.3318112,0
            19.8224794,41.3325444,0
            19.822745,41.3329311,0
            19.8241351,41.3355676,0
            19.8247794,41.3366908,0
            19.8259918,41.3383463,0
            19.8291907,41.3400672,0
            19.8352225,41.3432142,0
            19.8372333,41.3446251,0
          </coordinates>
        </LineString>
      </Placemark>
      <Placemark>
        <name>Rr. Kavajes</name>
        <styleUrl>#line-E65100-1200-nodesc</styleUrl>
        <LineString>
          <tessellate>1</tessellate>
          <coordinates>
            19.7838528,41.3198605,0
            19.7890241,41.3216251,0
            19.7894747,41.3219393,0
            19.7902906,41.3220034,0
            19.8118848,41.3283779,0
            19.8159281,41.3281948,0
          </coordinates>
        </LineString>
      </Placemark>
      <Placemark>
        <name>Rr. Durresit</name>
        <styleUrl>#line-E65100-1200-nodesc</styleUrl>
        <LineString>
          <tessellate>1</tessellate>
          <coordinates>
            19.8159216,41.3290862,0
            19.8047422,41.332929,0
          </coordinates>
        </LineString>
      </Placemark>
    </Folder>
    <Folder>
      <name>Directions from Rr. Kavajes A to Rruga e Kavajës 1, Tiranë, Albania</name>
      <Placemark>
        <name>Directions from Rr. Kavajes A to Rruga e Kavajës 1, Tiranë, Albania</name>
        <styleUrl>#line-1267FF-5000-nodesc</styleUrl>
        <LineString>
          <tessellate>1</tessellate>
          <coordinates>
            19.78412,41.31982,0
            19.78429,41.31987,0
            19.78482,41.32004,0
            19.7856,41.32032,0
            19.78615,41.32052,0
            19.78659,41.32067,0
            19.78754,41.32096,0
            19.78766,41.321,0
            19.78771,41.32101,0
            19.78785,41.32107,0
            19.7886,41.3213,0
            19.78863,41.32131,0
            19.78867,41.32133,0
            19.78881,41.32136,0
            19.78886,41.32136,0
            19.78898,41.32138,0
            19.78909,41.32138,0
            19.78933,41.32139,0
            19.78934,41.32139,0
            19.78935,41.32139,0
            19.78936,41.32139,0
            19.78937,41.32139,0
            19.78937,41.32138,0
            19.78938,41.32138,0
            19.78939,41.32138,0
            19.78943,41.32138,0
            19.78947,41.32138,0
            19.78951,41.32138,0
            19.78955,41.32139,0
            19.78959,41.3214,0
            19.78962,41.32141,0
            19.78966,41.32143,0
            19.78969,41.32145,0
            19.78972,41.32147,0
            19.78974,41.32149,0
            19.78976,41.32152,0
            19.78977,41.32153,0
            19.78977,41.32154,0
            19.78978,41.32154,0
            19.78978,41.32155,0
            19.78979,41.32156,0
            19.78979,41.32157,0
            19.78979,41.32158,0
            19.7898,41.32159,0
            19.79013,41.32178,0
            19.79027,41.32185,0
            19.79034,41.32188,0
            19.79078,41.32203,0
            19.79083,41.32204,0
            19.79152,41.32221,0
            19.79175,41.32226,0
            19.79184,41.32229,0
            19.79217,41.32236,0
            19.7926,41.3225,0
            19.79281,41.32256,0
            19.79303,41.32263,0
            19.79387,41.32289,0
            19.79412,41.32295,0
            19.79548,41.32333,0
            19.79632,41.32357,0
            19.79703,41.32377,0
            19.79744,41.32389,0
            19.79853,41.32421,0
            19.80031,41.32472,0
            19.80144,41.32508,0
            19.80228,41.32534,0
            19.80304,41.32557,0
            19.8032,41.32561,0
            19.80344,41.3257,0
            19.80355,41.32573,0
            19.80381,41.32582,0
            19.80448,41.32602,0
            19.80467,41.32608,0
            19.8047,41.32609,0
            19.80541,41.3263,0
            19.80581,41.32642,0
            19.8063,41.32657,0
            19.80687,41.32676,0
            19.80709,41.32682,0
            19.80732,41.32689,0
            19.80775,41.32702,0
            19.80797,41.32709,0
            19.80814,41.32715,0
            19.80845,41.32725,0
            19.80898,41.32741,0
            19.80918,41.32747,0
            19.80968,41.32763,0
            19.80976,41.32766,0
            19.81014,41.32778,0
            19.81109,41.32806,0
            19.81144,41.32817,0
            19.81163,41.32821,0
            19.81178,41.32824,0
            19.81187,41.32825,0
            19.81192,41.32825,0
            19.81202,41.32826,0
            19.81218,41.32826,0
            19.81232,41.32825,0
            19.81288,41.32823,0
            19.81304,41.32822,0
            19.81328,41.32821,0
            19.81331,41.32821,0
            19.81352,41.3282,0
            19.81376,41.32819,0
            19.814,41.32817,0
            19.81423,41.32817,0
            19.81447,41.32816,0
            19.8147,41.32815,0
            19.81494,41.32815,0
            19.81517,41.32814,0
            19.81524,41.32814,0
            19.81525,41.32814,0
            19.81548,41.32814,0
            19.8157,41.32813,0
            19.81593,41.32813,0
            19.81621,41.32806,0
          </coordinates>
        </LineString>
      </Placemark>
      <Placemark>
        <name>Rr. Kavajes A</name>
        <styleUrl>#icon-1899-DB4436-nodesc</styleUrl>
        <Point>
          <coordinates>
            19.7841243,41.3198161,0
          </coordinates>
        </Point>
      </Placemark>
      <Placemark>
        <name>Rr. Kavajes B
</name>
        <styleUrl>#icon-1899-DB4436-nodesc</styleUrl>
        <Point>
          <coordinates>
            19.8031971,41.3256143,0
          </coordinates>
        </Point>
      </Placemark>
      <Placemark>
        <name>Rr. Kavajes C</name>
        <styleUrl>#icon-1899-DB4436-nodesc</styleUrl>
        <Point>
          <coordinates>
            19.8119246,41.3282523,0
          </coordinates>
        </Point>
      </Placemark>
      <Placemark>
        <name>Rruga e Kavajës 1, Tiranë, Albania</name>
        <styleUrl>#icon-1899-DB4436-nodesc</styleUrl>
        <Point>
          <coordinates>
            19.8162126,41.3280572,0
          </coordinates>
        </Point>
      </Placemark>
    </Folder>
    <Folder>
      <name>Spitalet_Dummy_20260420</name>
      <Placemark>
        <name>Spitali Nr 2 (Kirurgjia)</name>
        <styleUrl>#icon-1899-FFEA00-labelson-nodesc</styleUrl>
        <Point>
          <coordinates>
            19.8321604,41.339508,0
          </coordinates>
        </Point>
      </Placemark>
      <Placemark>
        <name>Spitali Universitar i Traumës</name>
        <styleUrl>#icon-1899-FFEA00-labelson-nodesc</styleUrl>
        <Point>
          <coordinates>
            19.7950452,41.3428371,0
          </coordinates>
        </Point>
      </Placemark>
      <Placemark>
        <name><![CDATA[Gynecological Obstetric University Hospital "Koço Gliozheni"]]></name>
        <styleUrl>#icon-1899-FFEA00-labelson-nodesc</styleUrl>
        <Point>
          <coordinates>
            19.838233,41.3314402,0
          </coordinates>
        </Point>
      </Placemark>
      <Placemark>
        <name>Onkologjiku</name>
        <styleUrl>#icon-1899-FFEA00-labelson-nodesc</styleUrl>
        <Point>
          <coordinates>
            19.8188857,41.3318443,0
          </coordinates>
        </Point>
      </Placemark>
      <Placemark>
        <name>Kardiologjia</name>
        <styleUrl>#icon-1899-FFEA00-labelson-nodesc</styleUrl>
        <Point>
          <coordinates>
            19.8336703,41.3409926,0
          </coordinates>
        </Point>
      </Placemark>
      <Placemark>
        <name>QSUT Spitali Qendror</name>
        <styleUrl>#icon-1899-FFEA00-labelson-nodesc</styleUrl>
        <Point>
          <coordinates>
            19.832615,41.3412802,0
          </coordinates>
        </Point>
      </Placemark>
      <Placemark>
        <name>Mother Teresa Hospital</name>
        <styleUrl>#icon-1899-FFEA00-labelson-nodesc</styleUrl>
        <Point>
          <coordinates>
            19.8345706,41.3403355,0
          </coordinates>
        </Point>
      </Placemark>
      <Placemark>
        <name>Spitali Infektiv</name>
        <styleUrl>#icon-1899-FFEA00-labelson-nodesc</styleUrl>
        <Point>
          <coordinates>
            19.8313221,41.3390479,0
          </coordinates>
        </Point>
      </Placemark>
      <Placemark>
        <name>Sanatorium</name>
        <styleUrl>#icon-1899-FFEA00-labelson-nodesc</styleUrl>
        <Point>
          <coordinates>
            19.8437353,41.312736,0
          </coordinates>
        </Point>
      </Placemark>
      <Placemark>
        <name>Institute of Forensic Medicine</name>
        <styleUrl>#icon-1899-FFEA00-labelson-nodesc</styleUrl>
        <Point>
          <coordinates>
            19.8340515,41.3393178,0
          </coordinates>
        </Point>
      </Placemark>
    </Folder>
    <Folder>
      <name>Industri_Dummy_20260420</name>
      <Placemark>
        <name>Kombinat Tiranë</name>
        <styleUrl>#icon-1899-7CB342-labelson-nodesc</styleUrl>
        <Point>
          <coordinates>
            19.7662711,41.3143294,0
          </coordinates>
        </Point>
      </Placemark>
      <Placemark>
        <name>Kinostudio</name>
        <styleUrl>#icon-1899-7CB342-labelson-nodesc</styleUrl>
        <Point>
          <coordinates>
            19.8440006,41.343522,0
          </coordinates>
        </Point>
      </Placemark>
    </Folder>
    <Folder>
      <name>Housing_Dummy_20260420</name>
      <Placemark>
        <name>Kombinat</name>
        <styleUrl>#icon-1899-C2185B-labelson-nodesc</styleUrl>
        <Point>
          <coordinates>
            19.7680967,41.3148604,0
          </coordinates>
        </Point>
      </Placemark>
      <Placemark>
        <name>Laprakë</name>
        <styleUrl>#icon-1899-C2185B-labelson-nodesc</styleUrl>
        <Point>
          <coordinates>
            19.7874439,41.3415698,0
          </coordinates>
        </Point>
      </Placemark>
      <Placemark>
        <name>Ali Demi</name>
        <styleUrl>#icon-1899-C2185B-labelson-nodesc</styleUrl>
        <Point>
          <coordinates>
            19.8350702,41.3282371,0
          </coordinates>
        </Point>
      </Placemark>
      <Placemark>
        <name>Kinostudio</name>
        <styleUrl>#icon-1899-C2185B-labelson-nodesc</styleUrl>
        <Point>
          <coordinates>
            19.8440006,41.343522,0
          </coordinates>
        </Point>
      </Placemark>
      <Placemark>
        <name>Yzberisht</name>
        <styleUrl>#icon-1899-C2185B-labelson-nodesc</styleUrl>
        <Point>
          <coordinates>
            19.7740496,41.3282779,0
          </coordinates>
        </Point>
      </Placemark>
      <Placemark>
        <name>9 Katshet</name>
        <styleUrl>#icon-1899-C2185B-labelson-nodesc</styleUrl>
        <Point>
          <coordinates>
            19.8267605,41.3320095,0
          </coordinates>
        </Point>
      </Placemark>
      <Placemark>
        <name>Point 7</name>
        <styleUrl>#icon-1899-C2185B-labelson-nodesc</styleUrl>
        <Point>
          <coordinates>
            19.8265413,41.3318364,0
          </coordinates>
        </Point>
      </Placemark>
      <Placemark>
        <name>Parafabrikatet</name>
        <styleUrl>#icon-1899-C2185B-labelson-nodesc</styleUrl>
        <Point>
          <coordinates>
            19.8367644,41.3467416,0
          </coordinates>
        </Point>
      </Placemark>
      <Placemark>
        <name>Pallatet e Dibranëve</name>
        <styleUrl>#icon-1899-C2185B-labelson-nodesc</styleUrl>
        <Point>
          <coordinates>
            19.8460248,41.3297492,0
          </coordinates>
        </Point>
      </Placemark>
      <Placemark>
        <name>Pallatet Arabe</name>
        <styleUrl>#icon-1899-C2185B-labelson-nodesc</styleUrl>
        <Point>
          <coordinates>
            19.8065416,41.3401843,0
          </coordinates>
        </Point>
      </Placemark>
    </Folder>
  </Document>
</kml>
